STARLINK-1766           
1 46677U 20073H   21159.27304623  .00000720  00000-0  67201-4 0  9996
2 46677  53.0559 112.2076 0001442  59.0782 301.0348 15.06398144 35569
STARLINK-1773           
1 46679U 20073K   21159.21222194  .00000696  00000-0  65674-4 0  9998
2 46679  53.0547  92.4674 0004733 126.9928 233.1494 15.06404243 35838
STARLINK-1774           
1 46680U 20073L   21159.28089226  .00000545  00000-0  55473-4 0  9993
2 46680  53.0534 127.1753 0001033  49.1596 310.9483 15.06406336 35351
STARLINK-1775           
1 46681U 20073M   21159.38408232 -.00001240  00000-0 -64403-4 0  9995
2 46681  53.0555 126.6953 0001218  53.3086 306.8015 15.06395834 35363
STARLINK-1776           
1 46682U 20073N   21159.60891291  .00000682  00000-0  64677-4 0  9992
2 46682  53.0549 125.7022 0001374  68.7119 291.4016 15.06404049 35992
STARLINK-1778           
1 46683U 20073P   21159.39769001  .00006820  00000-0  16584-3 0  9995
2 46683  53.0501 122.4896 0001009 104.2846 255.8270 15.42193154 35428
STARLINK-1780           
1 46684U 20073Q   21159.33201523  .00000809  00000-0  73195-4 0  9993
2 46684  53.0552 111.9501 0001604  74.4158 285.7008 15.06400958 35576
STARLINK-1781           
1 46685U 20073R   21159.38776777 -.00001519  00000-0 -83098-4 0  9991
2 46685  53.0542 126.6774 0001480  71.0660 289.0490 15.06399192 35360
STARLINK-1783           
1 46686U 20073S   21159.36936499  .00000360  00000-0  43063-4 0  9998
2 46686  53.0541 126.7723 0000929  37.2507 322.8547 15.06401670 35360
STARLINK-1784           
1 46687U 20073T   21159.28962857 -.00000930  00000-0 -43527-4 0  9997
2 46687  53.0552  92.1192 0001528  47.3843 312.7274 15.06395378 35845
STARLINK-1786           
1 46688U 20073U   21159.26612951  .00000852  00000-0  76060-4 0  9992
2 46688  53.0550 127.2427 0001362  55.3614 304.7503 15.06411082 35359
STARLINK-1788           
1 46689U 20073V   21159.38039773  .00000469  00000-0  50352-4 0  9991
2 46689  53.0547 126.7231 0001306  62.7454 297.3668 15.06404381 36618
STARLINK-1789           
1 46690U 20073W   21159.31451142 -.00000906  00000-0 -41951-4 0  9997
2 46690  53.0528 102.0187 0001632  68.2293 291.8869 15.06395286 35704
STARLINK-1790           
1 46691U 20073X   21159.24725608  .00000573  00000-0  57359-4 0  9998
2 46691  53.0554 112.3156 0001524  58.7529 301.3609 15.06391920 35553
STARLINK-1791           
1 46692U 20073Y   21159.43200334 -.00001239  00000-0 -64303-4 0  9993
2 46692  53.0555 126.5052 0001121  62.6928 297.4174 15.06394889 35376
STARLINK-1792           
1 46693U 20073Z   21159.38362691  .00000727  00000-0  67683-4 0  9996
2 46693  53.0546 111.7054 0001581  53.2411 306.8723 15.06401673 35575
STARLINK-1793           
1 46694U 20073AA  21159.20854848 -.00001069  00000-0 -52653-4 0  9991
2 46694  53.0569  92.4823 0007457 133.5031 226.6579 15.06394589 35832
STARLINK-1794           
1 46695U 20073AB  21159.62318590  .00309152  00000-0  60314-2 0  9990
2 46695  53.0568 121.0070 0001079 116.3342 243.7775 15.45843462 35956
STARLINK-1795           
1 46696U 20073AC  21159.22696301 -.00002983  00000-0 -18140-3 0  9991
2 46696  53.0553  92.3986 0001471  49.0793 311.0323 15.06413775 35837
STARLINK-1796           
1 46697U 20073AD  21159.40734833  .00385107  00000-0  49229-2 0  9996
2 46697  53.0580 116.8023 0001676  62.6602 297.4579 15.57404078 35516
STARLINK-1797           
1 46698U 20073AE  21159.28411502  .00000236  00000-0  34734-4 0  9992
2 46698  53.0556 112.1513 0001326  70.5349 289.5783 15.06390017 35566
STARLINK-1799           
1 46699U 20073AF  21159.35413288 -.00000915  00000-0 -42544-4 0  9998
2 46699  53.0554 111.8321 0001511  75.6500 284.4657 15.06393685 35578
STARLINK-1800           
1 46700U 20073AG  21159.42462830 -.00000105  00000-0  11840-4 0  9991
2 46700  53.0549 126.5325 0001462  64.2192 295.8948 15.06397518 35374
STARLINK-1801           
1 46701U 20073AH  21159.25832023  .00000691  00000-0  65281-4 0  9995
2 46701  53.0553 112.2840 0001383  51.0509 309.0603 15.06404344 35565
