CREATION_DATE,OBJECT_NAME,OBJECT_ID,EPOCH,MEAN_MOTION,ECCENTRICITY,INCLINATION,RA_OF_ASC_NODE,ARG_OF_PERICENTER,MEAN_ANOMALY,EPHEMERIS_TYPE,CLASSIFICATION_TYPE,NORAD_CAT_ID,ELEMENT_SET_NO,REV_AT_EPOCH,BSTAR,MEAN_MOTION_DOT,MEAN_MOTION_DDOT,SEMIMAJOR_AXIS,PERIOD,APOAPSIS,PERIAPSIS,OBJECT_TYPE,RCS_SIZE,COUNTRY_CODE,LAUNCH_DATE
2021-06-08T18:36:59,STARLINK-1766,2020-073H,2021-06-08T06:33:11.194272,15.06398144,0.0001442,53.0559,112.2076,59.0782,301.0348,0,U,46677,999,3556,0.000067201,0.0000072,0,6925.354,95.592,548.218,546.221,PAYLOAD,LARGE,US,10/18/2020
2021-06-08T18:36:59,STARLINK-1773,2020-073K,2021-06-08T05:05:35.975616,15.06404243,0.0004733,53.0547,92.4674,126.9928,233.1494,0,U,46679,999,3583,0.000065674,0.00000696,0,6925.336,95.592,550.478,543.923,PAYLOAD,LARGE,US,10/18/2020
2021-06-08T18:36:59,STARLINK-1774,2020-073L,2021-06-08T06:44:29.091264,15.06406336,0.0001033,53.0534,127.1753,49.1596,310.9483,0,U,46680,999,3535,0.000055473,0.00000545,0,6925.329,95.592,547.91,546.479,PAYLOAD,LARGE,US,10/18/2020
2021-06-08T18:36:59,STARLINK-1775,2020-073M,2021-06-08T09:13:04.712448,15.06395834,0.0001218,53.0555,126.6953,53.3086,306.8015,0,U,46681,999,3536,-0.000064403,-0.0000124,0,6925.361,95.592,548.07,546.383,PAYLOAD,LARGE,US,10/18/2020
2021-06-08T22:36:11,STARLINK-1776,2020-073N,2021-06-08T14:36:50.075424,15.06404049,0.0001374,53.0549,125.7022,68.7119,291.4016,0,U,46682,999,3599,0.000064677,0.00000682,0,6925.336,95.592,548.153,546.25,PAYLOAD,LARGE,US,10/18/2020
2021-06-08T18:36:59,STARLINK-1778,2020-073P,2021-06-08T09:32:40.416864,15.42193154,0.0001009,53.0501,122.4896,104.2846,255.827,0,U,46683,999,3542,0.00016584,0.0000682,0,6817.775,93.374,440.328,438.952,PAYLOAD,LARGE,US,10/18/2020
2021-06-08T18:36:59,STARLINK-1780,2020-073Q,2021-06-08T07:58:06.115872,15.06400958,0.0001604,53.0552,111.9501,74.4158,285.7008,0,U,46684,999,3557,0.000073195,0.00000809,0,6925.346,95.592,548.321,546.1,PAYLOAD,LARGE,US,10/18/2020
2021-06-08T18:36:59,STARLINK-1781,2020-073R,2021-06-08T09:18:23.135328,15.06399192,0.000148,53.0542,126.6774,71.066,289.049,0,U,46685,999,3536,-0.000083098,-0.00001519,0,6925.351,95.592,548.241,546.191,PAYLOAD,LARGE,US,10/18/2020
2021-06-08T18:36:59,STARLINK-1783,2020-073S,2021-06-08T08:51:53.135136,15.0640167,0.0000929,53.0541,126.7723,37.2507,322.8547,0,U,46686,999,3536,0.000043063,0.0000036,0,6925.343,95.592,547.852,546.565,PAYLOAD,LARGE,US,10/18/2020
2021-06-08T18:36:59,STARLINK-1784,2020-073T,2021-06-08T06:57:03.908448,15.06395378,0.0001528,53.0552,92.1192,47.3843,312.7274,0,U,46687,999,3584,-0.000043527,-0.0000093,0,6925.363,95.592,548.286,546.17,PAYLOAD,LARGE,US,10/18/2020
2021-06-08T18:36:59,STARLINK-1786,2020-073U,2021-06-08T06:23:13.589664,15.06411082,0.0001362,53.055,127.2427,55.3614,304.7503,0,U,46688,999,3535,0.00007606,0.00000852,0,6925.315,95.591,548.123,546.236,PAYLOAD,LARGE,US,10/18/2020
2021-06-08T18:36:59,STARLINK-1788,2020-073V,2021-06-08T09:07:46.363872,15.06404381,0.0001306,53.0547,126.7231,62.7454,297.3668,0,U,46689,999,3661,0.000050352,0.00000469,0,6925.335,95.592,548.105,546.296,PAYLOAD,LARGE,US,10/18/2020
2021-06-08T18:36:59,STARLINK-1789,2020-073W,2021-06-08T07:32:53.786688,15.06395286,0.0001632,53.0528,102.0187,68.2293,291.8869,0,U,46690,999,3570,-0.000041951,-0.00000906,0,6925.363,95.592,548.358,546.098,PAYLOAD,LARGE,US,10/18/2020
2021-06-08T18:36:59,STARLINK-1790,2020-073X,2021-06-08T05:56:02.925312,15.0639192,0.0001524,53.0554,112.3156,58.7529,301.3609,0,U,46691,999,3555,0.000057359,0.00000573,0,6925.373,95.593,548.294,546.183,PAYLOAD,LARGE,US,10/18/2020
2021-06-08T18:36:59,STARLINK-1791,2020-073Y,2021-06-08T10:22:05.088576,15.06394889,0.0001121,53.0555,126.5052,62.6928,297.4174,0,U,46692,999,3537,-0.000064303,-0.00001239,0,6925.364,95.592,548.006,546.453,PAYLOAD,LARGE,US,10/18/2020
2021-06-08T18:36:59,STARLINK-1792,2020-073Z,2021-06-08T09:12:25.365024,15.06401673,0.0001581,53.0546,111.7054,53.2411,306.8723,0,U,46693,999,3557,0.000067683,0.00000727,0,6925.343,95.592,548.303,546.114,PAYLOAD,LARGE,US,10/18/2020
2021-06-08T18:36:59,STARLINK-1793,2020-073AA,2021-06-08T05:00:18.588672,15.06394589,0.0007457,53.0569,92.4823,133.5031,226.6579,0,U,46694,999,3583,-0.000052653,-0.00001069,0,6925.365,95.592,552.394,542.066,PAYLOAD,LARGE,US,10/18/2020
2021-06-08T22:46:11,STARLINK-1794,2020-073AB,2021-06-08T14:57:23.261760,15.45843462,0.0001079,53.0568,121.007,116.3342,243.7775,0,U,46695,999,3595,0.0060314,0.00309152,0,6807.038,93.153,429.637,428.168,PAYLOAD,LARGE,US,10/18/2020
2021-06-08T18:36:59,STARLINK-1795,2020-073AC,2021-06-08T05:26:49.604064,15.06413775,0.0001471,53.0553,92.3986,49.0793,311.0323,0,U,46696,999,3583,-0.0001814,-0.00002983,0,6925.306,95.591,548.19,546.153,PAYLOAD,LARGE,US,10/18/2020
2021-06-08T18:36:59,STARLINK-1796,2020-073AD,2021-06-08T09:46:34.895712,15.57404078,0.0001676,53.058,116.8023,62.6602,297.4579,0,U,46697,999,3551,0.0049229,0.00385107,0,6773.31,92.462,396.31,394.04,PAYLOAD,LARGE,US,10/18/2020
2021-06-08T18:36:59,STARLINK-1797,2020-073AE,2021-06-08T06:49:07.537728,15.06390017,0.0001326,53.0556,112.1513,70.5349,289.5783,0,U,46698,999,3556,0.000034734,0.00000236,0,6925.379,95.593,548.162,546.326,PAYLOAD,LARGE,US,10/18/2020
2021-06-08T18:36:59,STARLINK-1799,2020-073AF,2021-06-08T08:29:57.080832,15.06393685,0.0001511,53.0554,111.8321,75.65,284.4657,0,U,46699,999,3557,-0.000042544,-0.00000915,0,6925.368,95.593,548.279,546.186,PAYLOAD,LARGE,US,10/18/2020
2021-06-08T18:36:59,STARLINK-1800,2020-073AG,2021-06-08T10:11:27.885120,15.06397518,0.0001462,53.0549,126.5325,64.2192,295.8948,0,U,46700,999,3537,0.00001184,-0.00000105,0,6925.356,95.592,548.234,546.209,PAYLOAD,LARGE,US,10/18/2020
2021-06-08T18:36:59,STARLINK-1801,2020-073AH,2021-06-08T06:11:58.867872,15.06404344,0.0001383,53.0553,112.284,51.0509,309.0603,0,U,46701,999,3556,0.000065281,0.00000691,0,6925.335,95.592,548.158,546.242,PAYLOAD,LARGE,US,10/18/2020
